NORAD_CAT_ID,OBJECT_NAME,OBJECT_TYPE,EPOCH,MEAN_MOTION,ECCENTRICITY,INCLINATION,RA_OF_ASC_NODE,ARG_OF_PERICENTER,MEAN_ANOMALY,BSTAR,MEAN_MOTION_DOT,MEAN_MOTION_DDOT,TLE_LINE0,TLE_LINE1,TLE_LINE2,SEMIMAJOR_AXIS,PERIOD,APOGEE,PERIGEE,DECAYED
55938.0,STARLINK-5909,PAYLOAD,2023-05-05 21:54:02,15.6992085,0.0003739,70.0019,42.9,266.3592,93.7176,1.0356e-05,1.032e-05,0.0,0 STARLINK-5909,1 55938U 23037AA  23125.91252774  .00001032  00000-0  10356-4 0  9990,2 55938  70.0019  42.9000 0003739 266.3592  93.7176 15.69920850  8241,6737.26,91.724,361.645,356.606,0.0
55938.0,STARLINK-5909,PAYLOAD,2023-05-06 04:01:02,15.69934334,0.0003017,70.0011,42.1843,253.1597,106.9268,5.9996e-06,5.09e-06,0.0,0 STARLINK-5909,1 55938U 23037AA  23126.16738827  .00000509  00000-0  59996-5 0  9998,2 55938  70.0011  42.1843 0003017 253.1597 106.9268 15.69934334  8283,6737.222,91.724,361.119,357.054,0.0
55938.0,STARLINK-5909,PAYLOAD,2023-05-07 02:57:20,15.69912865,0.0003316,70.0016,39.4964,261.7943,98.2877,-2.259e-05,-2.927e-05,0.0,0 STARLINK-5909,1 55938U 23037AA  23127.12314832 -.00002927  00000-0 -22590-4 0  9998,2 55938  70.0016  39.4964 0003316 261.7943  98.2877 15.69912865  8434,6737.283,91.725,361.382,356.914,0.0
55938.0,STARLINK-5909,PAYLOAD,2023-05-07 21:18:21,15.6992563,0.0003193,70.0026,37.3476,254.9195,105.1648,2.3534e-05,2.618e-05,0.0,0 STARLINK-5909,1 55938U 23037AA  23127.88774397  .00002618  00000-0  23534-4 0  9991,2 55938  70.0026  37.3476 0003193 254.9195 105.1648 15.69925630  8557,6737.247,91.724,361.263,356.961,0.0
55938.0,STARLINK-5909,PAYLOAD,2023-05-08 20:14:37,15.69924723,0.0003221,70.0024,34.6595,255.4427,104.6411,1.1837e-05,1.211e-05,0.0,0 STARLINK-5909,1 55938U 23037AA  23128.84349342  .00001211  00000-0  11837-4 0  9997,2 55938  70.0024  34.6595 0003221 255.4427 104.6411 15.69924723  8366,6737.249,91.724,361.284,356.944,0.0
55938.0,STARLINK-5909,PAYLOAD,2023-05-09 03:53:23,15.69928269,0.0003222,70.0013,33.7638,258.9629,101.1204,2.2683e-05,2.516e-05,0.0,0 STARLINK-5909,1 55938U 23037AA  23129.16207626  .00002516  00000-0  22683-4 0  9991,2 55938  70.0013  33.7638 0003222 258.9629 101.1204 15.69928269  8412,6737.239,91.724,361.275,356.933,0.0
55938.0,STARLINK-5909,PAYLOAD,2023-05-10 02:49:40,15.69931588,0.0003661,70.0009,31.0764,265.3545,94.7233,2.4906e-05,2.784e-05,0.0,0 STARLINK-5909,1 55938U 23037AA  23130.11782655  .00002784  00000-0  24906-4 0  9995,2 55938  70.0009  31.0764 0003661 265.3545  94.7233 15.69931588  8567,6737.23,91.724,361.561,356.628,0.0
55938.0,STARLINK-5909,PAYLOAD,2023-05-10 18:07:11,15.69928236,0.0003494,70.0006,29.2844,264.55,95.5297,2.8953e-05,3.271e-05,0.0,0 STARLINK-5909,1 55938U 23037AA  23130.75499622  .00003271  00000-0  28953-4 0  9992,2 55938  70.0006  29.2844 0003494 264.5500  95.5297 15.69928236  9003,6737.239,91.724,361.458,356.75,0.0
55938.0,STARLINK-5909,PAYLOAD,2023-05-10 19:38:56,15.69927968,0.0003582,70.0014,29.1048,265.5453,94.5333,2.4911e-05,2.784e-05,0.0,0 STARLINK-5909,1 55938U 23037AA  23130.81871340  .00002784  00000-0  24911-4 0  9998,2 55938  70.0014  29.1048 0003582 265.5453  94.5333 15.69927968  8676,6737.24,91.724,361.518,356.692,0.0
55938.0,STARLINK-5909,PAYLOAD,2023-05-11 03:17:42,15.69918738,0.0003665,70.0012,28.2089,262.1586,97.9193,-5.7889e-06,-9.09e-06,0.0,0 STARLINK-5909,1 55938U 23037AA  23131.13729690 -.00000909  00000-0 -57889-5 0  9994,2 55938  70.0012  28.2089 0003665 262.1586  97.9193 15.69918738  8723,6737.266,91.724,361.601,356.662,0.0
55938.0,STARLINK-5909,PAYLOAD,2023-05-11 23:10:28,15.69940487,0.0003706,70.0007,25.8811,267.2625,92.8147,5.3226e-05,6.196e-05,0.0,0 STARLINK-5909,1 55938U 23037AA  23131.96561079  .00006196  00000-0  53226-4 0  9992,2 55938  70.0007  25.8811 0003706 267.2625  92.8147 15.69940487  9190,6737.204,91.723,361.566,356.572,0.0
55938.0,STARLINK-5909,PAYLOAD,2023-05-12 02:13:58,15.69937372,0.0003836,69.9998,25.5222,262.0256,98.0505,3.6802e-05,4.217e-05,0.0,0 STARLINK-5909,1 55938U 23037AA  23132.09304199  .00004217  00000-0  36802-4 0  9998,2 55938  69.9998  25.5222 0003836 262.0256  98.0505 15.69937372  8875,6737.213,91.723,361.663,356.494,0.0
55938.0,STARLINK-5909,PAYLOAD,2023-05-12 19:03:15,15.69928327,0.0003585,70.0004,23.5523,265.2036,94.8751,3.6757e-06,2.29e-06,0.0,0 STARLINK-5909,1 55938U 23037AA  23132.79393163  .00000229  00000-0  36757-5 0  9993,2 55938  70.0004  23.5523 0003585 265.2036  94.8751 15.69928327  9328,6737.239,91.724,361.519,356.689,0.0
55938.0,STARLINK-5909,PAYLOAD,2023-05-13 02:42:00,15.69938161,0.0003769,70.0008,22.6582,260.9977,99.0792,3.9761e-05,4.574e-05,0.0,0 STARLINK-5909,1 55938U 23037AA  23133.11251054  .00004574  00000-0  39761-4 0  9996,2 55938  70.0008  22.6582 0003769 260.9977  99.0792 15.69938161  9371,6737.211,91.723,361.615,356.537,0.0
55938.0,STARLINK-5909,PAYLOAD,2023-05-13 19:31:17,15.69920685,0.0003434,70.0018,20.6865,259.0557,101.0252,-1.536e-05,-2.059e-05,0.0,0 STARLINK-5909,1 55938U 23037AA  23133.81340236 -.00002059  00000-0 -15360-4 0  9991,2 55938  70.0018  20.6865 0003434 259.0557 101.0252 15.69920685  9148,6737.261,91.724,361.439,356.812,0.0
55938.0,STARLINK-5909,PAYLOAD,2023-05-14 01:38:18,15.69936911,0.0003534,70.0008,19.969,263.0067,97.0727,3.4917e-05,3.99e-05,0.0,0 STARLINK-5909,1 55938U 23037AA  23134.06826425  .00003990  00000-0  34917-4 0  9990,2 55938  70.0008  19.9690 0003534 263.0067  97.0727 15.69936911  9528,6737.214,91.723,361.46,356.699,0.0
55938.0,STARLINK-5909,PAYLOAD,2023-05-14 19:59:20,15.69922396,0.0003183,70.0012,17.8207,265.7496,94.3336,4.1556e-06,2.87e-06,0.0,0 STARLINK-5909,1 55938U 23037AA  23134.83287184  .00000287  00000-0  41556-5 0  9992,2 55938  70.0012  17.8207 0003183 265.7496  94.3336 15.69922396  9303,6737.256,91.724,361.265,356.977,0.0
55938.0,STARLINK-5909,PAYLOAD,2023-05-15 00:34:35,15.69921299,0.0003408,70.0006,17.282,263.1344,96.9464,1.7886e-05,1.938e-05,0.0,0 STARLINK-5909,1 55938U 23037AA  23135.02402266  .00001938  00000-0  17886-4 0  9996,2 55938  70.0006  17.2820 0003408 263.1344  96.9464 15.69921299  9676,6737.259,91.724,361.42,356.828,0.0
55938.0,STARLINK-5909,PAYLOAD,2023-05-15 09:45:05,15.69931182,0.0002983,70.0024,16.2081,265.1898,94.8957,1.7887e-05,1.939e-05,0.0,0 STARLINK-5909,1 55938U 23037AA  23135.40631906  .00001939  00000-0  17887-4 0  9995,2 55938  70.0024  16.2081 0002983 265.1898  94.8957 15.69931182  9392,6737.231,91.724,361.106,357.086,0.0
55938.0,STARLINK-5909,PAYLOAD,2023-05-15 17:23:51,15.69925252,0.0002935,70.0025,15.3129,256.6711,103.4158,1.2078e-05,1.24e-05,0.0,0 STARLINK-5909,1 55938U 23037AA  23135.72490553  .00001240  00000-0  12078-4 0  9993,2 55938  70.0025  15.3129 0002935 256.6711 103.4158 15.69925252  9449,6737.248,91.724,361.09,357.135,0.0
55938.0,STARLINK-5909,PAYLOAD,2023-05-16 01:02:37,15.69923274,0.0002906,70.0023,14.4161,253.1971,106.8906,1.2339e-05,1.271e-05,0.0,0 STARLINK-5909,1 55938U 23037AA  23136.04349063  .00001271  00000-0  12339-4 0  9992,2 55938  70.0023  14.4161 0002906 253.1971 106.8906 15.69923274  9834,6737.254,91.724,361.076,357.161,0.0
55938.0,STARLINK-5909,PAYLOAD,2023-05-16 14:48:23,15.69918817,0.0003067,70.0024,12.8026,255.839,104.2465,6.108e-05,7.136e-05,0.0,0 STARLINK-5909,1 55938U 23037AA  23136.61694115  .00007136  00000-0  61080-4 0  9999,2 55938  70.0024  12.8026 0003067 255.8390 104.2465 15.69918817  9581,6737.266,91.724,361.198,357.065,0.0
55938.0,STARLINK-5909,PAYLOAD,2023-05-16 22:27:08,15.69929741,0.0003121,70.0008,11.9089,257.1445,102.9403,2.9532e-05,3.34e-05,0.0,0 STARLINK-5909,1 55938U 23037AA  23136.93551934  .00003340  00000-0  29532-4 0  9994,2 55938  70.0008  11.9089 0003121 257.1445 102.9403 15.69929741  9630,6737.235,91.724,361.203,356.997,0.0
55938.0,STARLINK-5909,PAYLOAD,2023-05-17 01:30:40,15.6990964,0.0002899,70.0006,11.5519,255.3748,104.7126,-1.4101e-05,-1.906e-05,0.0,0 STARLINK-5909,1 55938U 23037AA  23137.06296300 -.00001906  00000-0 -14101-4 0  9996,2 55938  70.0006  11.5519 0002899 255.3748 104.7126 15.69909640  9996,6737.293,91.725,361.111,357.204,0.0
55938.0,STARLINK-5909,PAYLOAD,2023-05-17 18:19:55,15.69927922,0.0003237,70.0011,9.5799,257.6922,102.3912,2.0974e-05,2.31e-05,0.0,0 STARLINK-5909,1 55938U 23037AA  23137.76383806  .00002310  00000-0  20974-4 0  9994,2 55938  70.0011   9.5799 0003237 257.6922 102.3912 15.69927922 10100,6737.24,91.724,361.286,356.924,0.0
55938.0,STARLINK-5909,PAYLOAD,2023-05-18 00:26:56,15.69929955,0.0003364,70.0009,8.8636,259.4413,100.6404,2.2101e-05,2.446e-05,0.0,0 STARLINK-5909,1 55938U 23037AA  23138.01870377  .00002446  00000-0  22101-4 0  9991,2 55938  70.0009   8.8636 0003364 259.4413 100.6404 15.69929955  9805,6737.234,91.724,361.366,356.833,0.0
55938.0,STARLINK-5909,PAYLOAD,2023-05-18 18:47:57,15.69925823,0.0003341,70.0005,6.7133,269.4336,90.6477,1.3889e-05,1.458e-05,0.0,0 STARLINK-5909,1 55938U 23037AA  23138.78330676  .00001458  00000-0  13889-4 0  9993,2 55938  70.0005   6.7133 0003341 269.4336  90.6477 15.69925823  9921,6737.246,91.724,361.362,356.86,0.0
55938.0,STARLINK-5909,PAYLOAD,2023-05-19 00:54:58,15.69931093,0.0003343,70.0004,5.9967,270.4747,89.6066,2.8489e-05,3.215e-05,0.0,0 STARLINK-5909,1 55938U 23037AA  23139.03817173  .00003215  00000-0  28489-4 0  9999,2 55938  70.0004   5.9967 0003343 270.4747  89.6066 15.69931093 10308,6737.231,91.724,361.348,356.844,0.0
55938.0,STARLINK-5909,PAYLOAD,2023-05-19 19:15:59,15.69924033,0.0003574,70.0,3.8472,269.5459,90.5327,4.7331e-06,3.56e-06,0.0,0 STARLINK-5909,1 55938U 23037AA  23139.80277378  .00000356  00000-0  47331-5 0  9992,2 55938  70.0000   3.8472 0003574 269.5459  90.5327 15.69924033 10089,6737.251,91.724,361.524,356.708,0.0
55938.0,STARLINK-5909,PAYLOAD,2023-05-20 01:23:00,15.69921315,0.0003493,69.9999,3.1304,269.5435,90.536,-2.5409e-06,-5.18e-06,0.0,0 STARLINK-5909,1 55938U 23037AA  23140.05764231 -.00000518  00000-0 -25409-5 0  9994,2 55938  69.9999   3.1304 0003493 269.5435  90.5360 15.69921315 10463,6737.259,91.724,361.477,356.771,0.0
